HULIANWANG DIGUI-01     
1 62323U 24240A   26063.81733736  .00000068  00000+0  12471-3 0  9994
2 62323  86.5029  18.4240 0001944  86.0679 274.0677 13.24420486 58821
HULIANWANG DIGUI-02     
1 62324U 24240B   26063.82479921  .00000062  00000+0  11024-3 0  9996
2 62324  86.5058  18.5513 0001868  89.7057 270.4291 13.24422091 58830
HULIANWANG DIGUI-03     
1 62325U 24240C   26063.80966642  .00000056  00000+0  96669-4 0  9998
2 62325  86.5011  18.3462 0002015  85.0195 275.1169 13.24422034 58820
HULIANWANG DIGUI-04     
1 62326U 24240D   26063.80214468  .00000045  00000+0  71806-4 0  9995
2 62326  86.5020  18.3804 0002056  85.4324 274.7045 13.24421710 58822
HULIANWANG DIGUI-05     
1 62327U 24240E   26063.79463789  .00000040  00000+0  59953-4 0  9990
2 62327  86.5072  18.6022 0002079  84.5372 275.5999 13.24420983 58821
HULIANWANG DIGUI-06     
1 62328U 24240F   26063.85497660  .00000026  00000+0  26650-4 0  9995
2 62328  86.5011  18.3009 0002032  88.9614 271.1753 13.24422907 58832
HULIANWANG DIGUI-07     
1 62329U 24240G   26063.84751814  .00000025  00000+0  25110-4 0  9998
2 62329  86.4982  18.1717 0002012  87.1909 272.9455 13.24421034 58837
HULIANWANG DIGUI-08     
1 62330U 24240H   26063.78709979  .00000027  00000+0  29465-4 0  9997
2 62330  86.5064  18.5621 0002129  85.8958 274.2420 13.24420879 58829
HULIANWANG DIGUI-09     
1 62331U 24240J   26063.83989223  .00000034  00000+0  45874-4 0  9996
2 62331  86.5031  18.4397 0001963  89.0746 271.0613 13.24422263 58827
HULIANWANG DIGUI-10     
1 62332U 24240K   26063.83237777  .00000052  00000+0  85973-4 0  9991
2 62332  86.5061  18.5646 0001963  91.1629 268.9730 13.24421657 58824
HULIANWANG DIGUI-11     
1 62971U 25030A   26063.73588308 -.00000085  00000+0  83463-4 0  9995
2 62971  49.9992 250.4661 0000751 165.9814 194.1079 13.29337730 51960
HULIANWANG DIGUI-12     
1 62972U 25030B   26063.81930321 -.00000087  00000+0  80676-4 0  9996
2 62972  50.0008 250.2857 0000901 161.3339 198.7566 13.29339930 51972
HULIANWANG DIGUI-13     
1 62973U 25030C   26063.80267648 -.00000085  00000+0  84781-4 0  9990
2 62973  50.0011 250.2111 0000715 152.5471 207.5439 13.29337869 51979
HULIANWANG DIGUI-14     
1 62974U 25030D   26063.77767543 -.00000084  00000+0  85964-4 0  9999
2 62974  50.0017 250.0989 0000803 152.1164 207.9751 13.29337709 51974
HULIANWANG DIGUI-15     
1 62975U 25030E   26063.71917975 -.00000089  00000+0  74662-4 0  9998
2 62975  50.0012 250.4401 0000683 158.6460 201.4440 13.29337810 51965
HULIANWANG DIGUI-16     
1 62976U 25030F   26063.76927197 -.00000087  00000+0  78763-4 0  9995
2 62976  50.0034 250.1081 0000803 149.7087 210.3831 13.29338433 51977
