[{"OBJECT_NAME":"HULIANWANG DIGUI-01","OBJECT_ID":"2024-240A","EPOCH":"2026-03-04T19:36:57.947904","MEAN_MOTION":13.24420486,"ECCENTRICITY":0.0001944,"INCLINATION":86.5029,"RA_OF_ASC_NODE":18.424,"ARG_OF_PERICENTER":86.0679,"MEAN_ANOMALY":274.0677,"EPHEMERIS_TYPE":0,"CLASSIFICATION_TYPE":"U","NORAD_CAT_ID":62323,"ELEMENT_SET_NO":999,"REV_AT_EPOCH":5882,"BSTAR":0.00012471,"MEAN_MOTION_DOT":6.8e-7,"MEAN_MOTION_DDOT":0},{"OBJECT_NAME":"HULIANWANG DIGUI-02","OBJECT_ID":"2024-240B","EPOCH":"2026-03-04T19:47:42.651744","MEAN_MOTION":13.24422091,"ECCENTRICITY":0.0001868,"INCLINATION":86.5058,"RA_OF_ASC_NODE":18.5513,"ARG_OF_PERICENTER":89.7057,"MEAN_ANOMALY":270.4291,"EPHEMERIS_TYPE":0,"CLASSIFICATION_TYPE":"U","NORAD_CAT_ID":62324,"ELEMENT_SET_NO":999,"REV_AT_EPOCH":5883,"BSTAR":0.00011024,"MEAN_MOTION_DOT":6.2e-7,"MEAN_MOTION_DDOT":0},{"OBJECT_NAME":"HULIANWANG DIGUI-03","OBJECT_ID":"2024-240C","EPOCH":"2026-03-04T19:25:55.178688","MEAN_MOTION":13.24422034,"ECCENTRICITY":0.0002015,"INCLINATION":86.5011,"RA_OF_ASC_NODE":18.3462,"ARG_OF_PERICENTER":85.0195,"MEAN_ANOMALY":275.1169,"EPHEMERIS_TYPE":0,"CLASSIFICATION_TYPE":"U","NORAD_CAT_ID":62325,"ELEMENT_SET_NO":999,"REV_AT_EPOCH":5882,"BSTAR":9.6669e-5,"MEAN_MOTION_DOT":5.6e-7,"MEAN_MOTION_DDOT":0},{"OBJECT_NAME":"HULIANWANG DIGUI-04","OBJECT_ID":"2024-240D","EPOCH":"2026-03-04T19:15:05.300352","MEAN_MOTION":13.2442171,"ECCENTRICITY":0.0002056,"INCLINATION":86.502,"RA_OF_ASC_NODE":18.3804,"ARG_OF_PERICENTER":85.4324,"MEAN_ANOMALY":274.7045,"EPHEMERIS_TYPE":0,"CLASSIFICATION_TYPE":"U","NORAD_CAT_ID":62326,"ELEMENT_SET_NO":999,"REV_AT_EPOCH":5882,"BSTAR":7.1806e-5,"MEAN_MOTION_DOT":4.5e-7,"MEAN_MOTION_DDOT":0},{"OBJECT_NAME":"HULIANWANG DIGUI-05","OBJECT_ID":"2024-240E","EPOCH":"2026-03-04T19:04:16.713696","MEAN_MOTION":13.24420983,"ECCENTRICITY":0.0002079,"INCLINATION":86.5072,"RA_OF_ASC_NODE":18.6022,"ARG_OF_PERICENTER":84.5372,"MEAN_ANOMALY":275.5999,"EPHEMERIS_TYPE":0,"CLASSIFICATION_TYPE":"U","NORAD_CAT_ID":62327,"ELEMENT_SET_NO":999,"REV_AT_EPOCH":5882,"BSTAR":5.9953e-5,"MEAN_MOTION_DOT":4.0e-7,"MEAN_MOTION_DDOT":0},{"OBJECT_NAME":"HULIANWANG DIGUI-06","OBJECT_ID":"2024-240F","EPOCH":"2026-03-04T20:31:09.978240","MEAN_MOTION":13.24422907,"ECCENTRICITY":0.0002032,"INCLINATION":86.5011,"RA_OF_ASC_NODE":18.3009,"ARG_OF_PERICENTER":88.9614,"MEAN_ANOMALY":271.1753,"EPHEMERIS_TYPE":0,"CLASSIFICATION_TYPE":"U","NORAD_CAT_ID":62328,"ELEMENT_SET_NO":999,"REV_AT_EPOCH":5883,"BSTAR":2.665e-5,"MEAN_MOTION_DOT":2.6e-7,"MEAN_MOTION_DDOT":0},{"OBJECT_NAME":"HULIANWANG DIGUI-07","OBJECT_ID":"2024-240G","EPOCH":"2026-03-04T20:20:25.567296","MEAN_MOTION":13.24421034,"ECCENTRICITY":0.0002012,"INCLINATION":86.4982,"RA_OF_ASC_NODE":18.1717,"ARG_OF_PERICENTER":87.1909,"MEAN_ANOMALY":272.9455,"EPHEMERIS_TYPE":0,"CLASSIFICATION_TYPE":"U","NORAD_CAT_ID":62329,"ELEMENT_SET_NO":999,"REV_AT_EPOCH":5883,"BSTAR":2.511e-5,"MEAN_MOTION_DOT":2.5e-7,"MEAN_MOTION_DDOT":0},{"OBJECT_NAME":"HULIANWANG DIGUI-08","OBJECT_ID":"2024-240H","EPOCH":"2026-03-04T18:53:25.421856","MEAN_MOTION":13.24420879,"ECCENTRICITY":0.0002129,"INCLINATION":86.5064,"RA_OF_ASC_NODE":18.5621,"ARG_OF_PERICENTER":85.8958,"MEAN_ANOMALY":274.242,"EPHEMERIS_TYPE":0,"CLASSIFICATION_TYPE":"U","NORAD_CAT_ID":62330,"ELEMENT_SET_NO":999,"REV_AT_EPOCH":5882,"BSTAR":2.9465e-5,"MEAN_MOTION_DOT":2.7e-7,"MEAN_MOTION_DDOT":0},{"OBJECT_NAME":"HULIANWANG DIGUI-09","OBJECT_ID":"2024-240J","EPOCH":"2026-03-04T20:09:26.688672","MEAN_MOTION":13.24422263,"ECCENTRICITY":0.0001963,"INCLINATION":86.5031,"RA_OF_ASC_NODE":18.4397,"ARG_OF_PERICENTER":89.0746,"MEAN_ANOMALY":271.0613,"EPHEMERIS_TYPE":0,"CLASSIFICATION_TYPE":"U","NORAD_CAT_ID":62331,"ELEMENT_SET_NO":999,"REV_AT_EPOCH":5882,"BSTAR":4.5874e-5,"MEAN_MOTION_DOT":3.4e-7,"MEAN_MOTION_DDOT":0},{"OBJECT_NAME":"HULIANWANG DIGUI-10","OBJECT_ID":"2024-240K","EPOCH":"2026-03-04T19:58:37.439328","MEAN_MOTION":13.24421657,"ECCENTRICITY":0.0001963,"INCLINATION":86.5061,"RA_OF_ASC_NODE":18.5646,"ARG_OF_PERICENTER":91.1629,"MEAN_ANOMALY":268.973,"EPHEMERIS_TYPE":0,"CLASSIFICATION_TYPE":"U","NORAD_CAT_ID":62332,"ELEMENT_SET_NO":999,"REV_AT_EPOCH":5882,"BSTAR":8.5973e-5,"MEAN_MOTION_DOT":5.2e-7,"MEAN_MOTION_DDOT":0},{"OBJECT_NAME":"HULIANWANG DIGUI-11","OBJECT_ID":"2025-030A","EPOCH":"2026-03-04T17:39:40.298112","MEAN_MOTION":13.2933773,"ECCENTRICITY":7.51e-5,"INCLINATION":49.9992,"RA_OF_ASC_NODE":250.4661,"ARG_OF_PERICENTER":165.9814,"MEAN_ANOMALY":194.1079,"EPHEMERIS_TYPE":0,"CLASSIFICATION_TYPE":"U","NORAD_CAT_ID":62971,"ELEMENT_SET_NO":999,"REV_AT_EPOCH":5196,"BSTAR":8.3463e-5,"MEAN_MOTION_DOT":-8.5e-7,"MEAN_MOTION_DDOT":0},{"OBJECT_NAME":"HULIANWANG DIGUI-12","OBJECT_ID":"2025-030B","EPOCH":"2026-03-04T19:39:47.797344","MEAN_MOTION":13.2933993,"ECCENTRICITY":9.01e-5,"INCLINATION":50.0008,"RA_OF_ASC_NODE":250.2857,"ARG_OF_PERICENTER":161.3339,"MEAN_ANOMALY":198.7566,"EPHEMERIS_TYPE":0,"CLASSIFICATION_TYPE":"U","NORAD_CAT_ID":62972,"ELEMENT_SET_NO":999,"REV_AT_EPOCH":5197,"BSTAR":8.0676e-5,"MEAN_MOTION_DOT":-8.7e-7,"MEAN_MOTION_DDOT":0},{"OBJECT_NAME":"HULIANWANG DIGUI-13","OBJECT_ID":"2025-030C","EPOCH":"2026-03-04T19:15:51.247872","MEAN_MOTION":13.29337869,"ECCENTRICITY":7.15e-5,"INCLINATION":50.0011,"RA_OF_ASC_NODE":250.2111,"ARG_OF_PERICENTER":152.5471,"MEAN_ANOMALY":207.5439,"EPHEMERIS_TYPE":0,"CLASSIFICATION_TYPE":"U","NORAD_CAT_ID":62973,"ELEMENT_SET_NO":999,"REV_AT_EPOCH":5197,"BSTAR":8.4781e-5,"MEAN_MOTION_DOT":-8.5e-7,"MEAN_MOTION_DDOT":0},{"OBJECT_NAME":"HULIANWANG DIGUI-14","OBJECT_ID":"2025-030D","EPOCH":"2026-03-04T18:39:51.157152","MEAN_MOTION":13.29337709,"ECCENTRICITY":8.03e-5,"INCLINATION":50.0017,"RA_OF_ASC_NODE":250.0989,"ARG_OF_PERICENTER":152.1164,"MEAN_ANOMALY":207.9751,"EPHEMERIS_TYPE":0,"CLASSIFICATION_TYPE":"U","NORAD_CAT_ID":62974,"ELEMENT_SET_NO":999,"REV_AT_EPOCH":5197,"BSTAR":8.5964e-5,"MEAN_MOTION_DOT":-8.4e-7,"MEAN_MOTION_DDOT":0},{"OBJECT_NAME":"HULIANWANG DIGUI-15","OBJECT_ID":"2025-030E","EPOCH":"2026-03-04T17:15:37.130400","MEAN_MOTION":13.2933781,"ECCENTRICITY":6.83e-5,"INCLINATION":50.0012,"RA_OF_ASC_NODE":250.4401,"ARG_OF_PERICENTER":158.646,"MEAN_ANOMALY":201.444,"EPHEMERIS_TYPE":0,"CLASSIFICATION_TYPE":"U","NORAD_CAT_ID":62975,"ELEMENT_SET_NO":999,"REV_AT_EPOCH":5196,"BSTAR":7.4662e-5,"MEAN_MOTION_DOT":-8.9e-7,"MEAN_MOTION_DDOT":0},{"OBJECT_NAME":"HULIANWANG DIGUI-16","OBJECT_ID":"2025-030F","EPOCH":"2026-03-04T18:27:45.098208","MEAN_MOTION":13.29338433,"ECCENTRICITY":8.03e-5,"INCLINATION":50.0034,"RA_OF_ASC_NODE":250.1081,"ARG_OF_PERICENTER":149.7087,"MEAN_ANOMALY":210.3831,"EPHEMERIS_TYPE":0,"CLASSIFICATION_TYPE":"U","NORAD_CAT_ID":62976,"ELEMENT_SET_NO":999,"REV_AT_EPOCH":5197,"BSTAR":7.8763e-5,"MEAN_MOTION_DOT":-8.7e-7,"MEAN_MOTION_DDOT":0}]
